{
  "type": "FeatureCollection",
  "features": [
    {
      "type": "Feature",
      "properties": {
        "OBJECT_NAME": "LEGION 2",
        "OBJECT_ID": "2024-081B",
        "EPOCH": "2025-11-29T18:22:04.924128",
        "MEAN_MOTION": 15.16292222,
        "ECCENTRICITY": 0.000654,
        "INCLINATION": 97.523,
        "RA_OF_ASC_NODE": 48.6019,
        "ARG_OF_PERICENTER": 344.9568,
        "MEAN_ANOMALY": 15.1469,
        "EPHEMERIS_TYPE": 0,
        "CLASSIFICATION_TYPE": "U",
        "NORAD_CAT_ID": 59626,
        "ELEMENT_SET_NO": 999,
        "REV_AT_EPOCH": 8731,
        "BSTAR": 0.00028763,
        "MEAN_MOTION_DOT": 5.506e-05,
        "MEAN_MOTION_DDOT": 0,
        "norad_id": 59626,
        "name": "LEGION 2",
        "group": "resource",
        "longitude_deg": NaN,
        "latitude_deg": NaN,
        "alt_km": NaN,
        "orbit_class": "HEO",
        "timestamp": "2025-11-30T04:58:49.652593+00:00"
      },
      "geometry": {
        "type": "Point",
        "coordinates": [
          NaN,
          NaN
        ]
      }
    },
    {
      "type": "Feature",
      "properties": {
        "OBJECT_NAME": "ALOS-4 (DAICHI-4)",
        "OBJECT_ID": "2024-123A",
        "EPOCH": "2025-11-29T20:16:04.497600",
        "MEAN_MOTION": 14.79467228,
        "ECCENTRICITY": 0.0001357,
        "INCLINATION": 97.9232,
        "RA_OF_ASC_NODE": 68.8752,
        "ARG_OF_PERICENTER": 103.5761,
        "MEAN_ANOMALY": 256.5601,
        "EPHEMERIS_TYPE": 0,
        "CLASSIFICATION_TYPE": "U",
        "NORAD_CAT_ID": 60182,
        "ELEMENT_SET_NO": 999,
        "REV_AT_EPOCH": 7640,
        "BSTAR": -7.9576e-06,
        "MEAN_MOTION_DOT": -1.11e-06,
        "MEAN_MOTION_DDOT": 0,
        "norad_id": 60182,
        "name": "ALOS-4 (DAICHI-4)",
        "group": "resource",
        "longitude_deg": NaN,
        "latitude_deg": NaN,
        "alt_km": NaN,
        "orbit_class": "HEO",
        "timestamp": "2025-11-30T04:58:49.655669+00:00"
      },
      "geometry": {
        "type": "Point",
        "coordinates": [
          NaN,
          NaN
        ]
      }
    },
    {
      "type": "Feature",
      "properties": {
        "OBJECT_NAME": "LEGION 3",
        "OBJECT_ID": "2024-146A",
        "EPOCH": "2025-11-29T15:21:44.506944",
        "MEAN_MOTION": 15.15550498,
        "ECCENTRICITY": 0.001344,
        "INCLINATION": 45.0024,
        "RA_OF_ASC_NODE": 20.3463,
        "ARG_OF_PERICENTER": 123.5933,
        "MEAN_ANOMALY": 236.623,
        "EPHEMERIS_TYPE": 0,
        "CLASSIFICATION_TYPE": "U",
        "NORAD_CAT_ID": 60452,
        "ELEMENT_SET_NO": 999,
        "REV_AT_EPOCH": 7174,
        "BSTAR": 0.00024203,
        "MEAN_MOTION_DOT": 4.414e-05,
        "MEAN_MOTION_DDOT": 0,
        "norad_id": 60452,
        "name": "LEGION 3",
        "group": "resource",
        "longitude_deg": NaN,
        "latitude_deg": NaN,
        "alt_km": NaN,
        "orbit_class": "HEO",
        "timestamp": "2025-11-30T04:58:49.657185+00:00"
      },
      "geometry": {
        "type": "Point",
        "coordinates": [
          NaN,
          NaN
        ]
      }
    },
    {
      "type": "Feature",
      "properties": {
        "OBJECT_NAME": "LEGION 4",
        "OBJECT_ID": "2024-146B",
        "EPOCH": "2025-11-29T18:33:04.135392",
        "MEAN_MOTION": 15.15600249,
        "ECCENTRICITY": 0.0009797,
        "INCLINATION": 45.0368,
        "RA_OF_ASC_NODE": 111.346,
        "ARG_OF_PERICENTER": 244.0633,
        "MEAN_ANOMALY": 115.9236,
        "EPHEMERIS_TYPE": 0,
        "CLASSIFICATION_TYPE": "U",
        "NORAD_CAT_ID": 60453,
        "ELEMENT_SET_NO": 999,
        "REV_AT_EPOCH": 7061,
        "BSTAR": 0.00030972,
        "MEAN_MOTION_DOT": 5.727e-05,
        "MEAN_MOTION_DDOT": 0,
        "norad_id": 60453,
        "name": "LEGION 4",
        "group": "resource",
        "longitude_deg": NaN,
        "latitude_deg": NaN,
        "alt_km": NaN,
        "orbit_class": "HEO",
        "timestamp": "2025-11-30T04:58:49.657191+00:00"
      },
      "geometry": {
        "type": "Point",
        "coordinates": [
          NaN,
          NaN
        ]
      }
    },
    {
      "type": "Feature",
      "properties": {
        "OBJECT_NAME": "SENTINEL-2C",
        "OBJECT_ID": "2024-157A",
        "EPOCH": "2025-11-29T19:14:54.414816",
        "MEAN_MOTION": 14.3082188,
        "ECCENTRICITY": 0.0001158,
        "INCLINATION": 98.5618,
        "RA_OF_ASC_NODE": 46.4746,
        "ARG_OF_PERICENTER": 102.8144,
        "MEAN_ANOMALY": 257.3168,
        "EPHEMERIS_TYPE": 0,
        "CLASSIFICATION_TYPE": "U",
        "NORAD_CAT_ID": 60989,
        "ELEMENT_SET_NO": 999,
        "REV_AT_EPOCH": 6447,
        "BSTAR": 7.1158e-05,
        "MEAN_MOTION_DOT": 1.43e-06,
        "MEAN_MOTION_DDOT": 0,
        "norad_id": 60989,
        "name": "SENTINEL-2C",
        "group": "resource",
        "longitude_deg": NaN,
        "latitude_deg": NaN,
        "alt_km": NaN,
        "orbit_class": "HEO",
        "timestamp": "2025-11-30T04:58:49.658736+00:00"
      },
      "geometry": {
        "type": "Point",
        "coordinates": [
          NaN,
          NaN
        ]
      }
    },
    {
      "type": "Feature",
      "properties": {
        "OBJECT_NAME": "IONOSFERA-M 1",
        "OBJECT_ID": "2024-199A",
        "EPOCH": "2025-11-29T21:17:46.258944",
        "MEAN_MOTION": 14.22709382,
        "ECCENTRICITY": 0.0001503,
        "INCLINATION": 98.7411,
        "RA_OF_ASC_NODE": 203.8333,
        "ARG_OF_PERICENTER": 40.1152,
        "MEAN_ANOMALY": 320.0137,
        "EPHEMERIS_TYPE": 0,
        "CLASSIFICATION_TYPE": "U",
        "NORAD_CAT_ID": 61735,
        "ELEMENT_SET_NO": 999,
        "REV_AT_EPOCH": 9936,
        "BSTAR": 4.4307e-05,
        "MEAN_MOTION_DOT": 5.5e-07,
        "MEAN_MOTION_DDOT": 0,
        "norad_id": 61735,
        "name": "IONOSFERA-M 1",
        "group": "resource",
        "longitude_deg": NaN,
        "latitude_deg": NaN,
        "alt_km": NaN,
        "orbit_class": "HEO",
        "timestamp": "2025-11-30T04:58:49.661017+00:00"
      },
      "geometry": {
        "type": "Point",
        "coordinates": [
          NaN,
          NaN
        ]
      }
    },
    {
      "type": "Feature",
      "properties": {
        "OBJECT_NAME": "IONOSFERA-M 2",
        "OBJECT_ID": "2024-199B",
        "EPOCH": "2025-11-29T20:26:24.819360",
        "MEAN_MOTION": 14.22711467,
        "ECCENTRICITY": 0.0001269,
        "INCLINATION": 98.741,
        "RA_OF_ASC_NODE": 203.7106,
        "ARG_OF_PERICENTER": 125.2319,
        "MEAN_ANOMALY": 234.8977,
        "EPHEMERIS_TYPE": 0,
        "CLASSIFICATION_TYPE": "U",
        "NORAD_CAT_ID": 61736,
        "ELEMENT_SET_NO": 999,
        "REV_AT_EPOCH": 10248,
        "BSTAR": 4.4979e-05,
        "MEAN_MOTION_DOT": 5.7e-07,
        "MEAN_MOTION_DDOT": 0,
        "norad_id": 61736,
        "name": "IONOSFERA-M 2",
        "group": "resource",
        "longitude_deg": NaN,
        "latitude_deg": NaN,
        "alt_km": NaN,
        "orbit_class": "HEO",
        "timestamp": "2025-11-30T04:58:49.661023+00:00"
      },
      "geometry": {
        "type": "Point",
        "coordinates": [
          NaN,
          NaN
        ]
      }
    },
    {
      "type": "Feature",
      "properties": {
        "OBJECT_NAME": "BIOMASS",
        "OBJECT_ID": "2025-090A",
        "EPOCH": "2025-11-29T12:38:21.176736",
        "MEAN_MOTION": 14.675383,
        "ECCENTRICITY": 0.0001245,
        "INCLINATION": 98.0709,
        "RA_OF_ASC_NODE": 158.7279,
        "ARG_OF_PERICENTER": 82.4846,
        "MEAN_ANOMALY": 277.65,
        "EPHEMERIS_TYPE": 0,
        "CLASSIFICATION_TYPE": "U",
        "NORAD_CAT_ID": 63772,
        "ELEMENT_SET_NO": 999,
        "REV_AT_EPOCH": 3140,
        "BSTAR": 0.00025932,
        "MEAN_MOTION_DOT": 1.423e-05,
        "MEAN_MOTION_DDOT": 0,
        "norad_id": 63772,
        "name": "BIOMASS",
        "group": "resource",
        "longitude_deg": NaN,
        "latitude_deg": NaN,
        "alt_km": NaN,
        "orbit_class": "HEO",
        "timestamp": "2025-11-30T04:58:49.673489+00:00"
      },
      "geometry": {
        "type": "Point",
        "coordinates": [
          NaN,
          NaN
        ]
      }
    }
  ]
}