LEGION 2                
1 59626U 24081B   25333.76533477  .00005506  00000+0  28763-3 0  9995
2 59626  97.5230  48.6019 0006540 344.9568  15.1469 15.16292222 87315
ALOS-4 (DAICHI-4)       
1 60182U 24123A   25333.84449650 -.00000111  00000+0 -79576-5 0  9998
2 60182  97.9232  68.8752 0001357 103.5761 256.5601 14.79467228 76408
LEGION 3                
1 60452U 24146A   25333.64009846  .00004414  00000+0  24203-3 0  9993
2 60452  45.0024  20.3463 0013440 123.5933 236.6230 15.15550498 71744
LEGION 4                
1 60453U 24146B   25333.77296453  .00005727  00000+0  30972-3 0  9998
2 60453  45.0368 111.3460 0009797 244.0633 115.9236 15.15600249 70610
SENTINEL-2C             
1 60989U 24157A   25333.80201869  .00000143  00000+0  71158-4 0  9994
2 60989  98.5618  46.4746 0001158 102.8144 257.3168 14.30821880 64475
IONOSFERA-M 1           
1 61735U 24199A   25333.88734096  .00000055  00000+0  44307-4 0  9999
2 61735  98.7411 203.8333 0001503  40.1152 320.0137 14.22709382 99369
IONOSFERA-M 2           
1 61736U 24199B   25333.85167615  .00000057  00000+0  44979-4 0  9991
2 61736  98.7410 203.7106 0001269 125.2319 234.8977 14.22711467102484
BIOMASS                 
1 63772U 25090A   25333.52663399  .00001423  00000+0  25932-3 0  9993
2 63772  98.0709 158.7279 0001245  82.4846 277.6500 14.67538300 31405
